NORAD_CAT_ID,OBJECT_NAME,OBJECT_TYPE,EPOCH,MEAN_MOTION,ECCENTRICITY,INCLINATION,RA_OF_ASC_NODE,ARG_OF_PERICENTER,MEAN_ANOMALY,BSTAR,MEAN_MOTION_DOT,MEAN_MOTION_DDOT,TLE_LINE0,TLE_LINE1,TLE_LINE2,SEMIMAJOR_AXIS,PERIOD,APOGEE,PERIGEE,DECAYED
52466.0,STARLINK-3840,PAYLOAD,2024-02-16 18:51:47,15.08836756,0.0001193,53.2169,194.7145,84.7024,275.4104,8.7231e-05,1.101e-05,0.0,0 STARLINK-3840,1 52466U 22049R   24047.78596740  .00001101  00000-0  87231-4 0  9991,2 52466  53.2169 194.7145 0001193  84.7024 275.4104 15.08836756 98730,6917.89,95.438,540.581,538.93,0.0
52466.0,STARLINK-3840,PAYLOAD,2024-02-17 15:31:48,15.08834413,0.0001152,53.2173,190.8482,85.6759,274.4365,5.5943e-05,6.03e-06,0.0,0 STARLINK-3840,1 52466U 22049R   24048.64709179  .00000603  00000-0  55943-4 0  9990,2 52466  53.2173 190.8482 0001152  85.6759 274.4365 15.08834413 98866,6917.897,95.438,540.559,538.966,0.0
52466.0,STARLINK-3840,PAYLOAD,2024-02-17 18:42:35,15.08828293,0.0001043,53.2176,190.2542,84.879,275.2321,0.00011256,1.504e-05,0.0,0 STARLINK-3840,1 52466U 22049R   24048.77957436  .00001504  00000-0  11256-3 0  9994,2 52466  53.2176 190.2542 0001043  84.8790 275.2321 15.08828293 99046,6917.916,95.438,540.503,539.06,0.0
52466.0,STARLINK-3840,PAYLOAD,2024-02-18 09:01:02,15.08846972,0.0001202,53.2177,187.5786,86.5844,273.5285,2.8618e-05,1.68e-06,0.0,0 STARLINK-3840,1 52466U 22049R   24049.37572532  .00000168  00000-0  28618-4 0  9997,2 52466  53.2177 187.5786 0001202  86.5844 273.5285 15.08846972 99136,6917.859,95.437,540.556,538.893,0.0
52466.0,STARLINK-3840,PAYLOAD,2024-02-18 15:22:34,15.08852696,0.0001263,53.2181,186.3915,80.3583,279.7552,-4.611e-05,-1.022e-05,0.0,0 STARLINK-3840,1 52466U 22049R   24049.64068246 -.00001022  00000-0 -46110-4 0  9998,2 52466  53.2181 186.3915 0001263  80.3583 279.7552 15.08852696 99013,6917.842,95.437,540.58,538.833,0.0
52466.0,STARLINK-3840,PAYLOAD,2024-02-19 02:30:17,15.08837893,0.0001303,53.2173,184.3099,75.3162,284.7974,-7.7473e-06,-4.11e-06,0.0,0 STARLINK-3840,1 52466U 22049R   24050.10437039 -.00000411  00000-0 -77473-5 0  9999,2 52466  53.2173 184.3099 0001303  75.3162 284.7974 15.08837893 99248,6917.887,95.438,540.653,538.85,0.0
52466.0,STARLINK-3840,PAYLOAD,2024-02-19 15:13:23,15.08832137,0.0001265,53.2174,181.9314,75.1933,284.9199,-4.3564e-05,-9.81e-06,0.0,0 STARLINK-3840,1 52466U 22049R   24050.63429649 -.00000981  00000-0 -43564-4 0  9990,2 52466  53.2174 181.9314 0001265  75.1933 284.9199 15.08832137 99161,6917.904,95.438,540.645,538.894,0.0
52466.0,STARLINK-3840,PAYLOAD,2024-02-19 18:24:09,15.08833936,0.0001287,53.2171,181.3363,75.6554,284.4581,-2.0232e-05,-6.1e-06,0.0,0 STARLINK-3840,1 52466U 22049R   24050.76677491 -.00000610  00000-0 -20232-4 0  9990,2 52466  53.2171 181.3363 0001287  75.6554 284.4581 15.08833936 99184,6917.899,95.438,540.654,538.874,0.0
52466.0,STARLINK-3840,PAYLOAD,2024-02-20 11:53:23,15.08839174,0.0001348,53.217,178.0654,77.0107,283.1035,1.283e-05,-8.4e-07,0.0,0 STARLINK-3840,1 52466U 22049R   24051.49541031 -.00000084  00000-0  12830-4 0  9990,2 52466  53.2170 178.0654 0001348  77.0107 283.1035 15.08839174 99457,6917.883,95.438,540.68,538.815,0.0
52466.0,STARLINK-3840,PAYLOAD,2024-02-20 15:04:09,15.08838267,0.0001339,53.2172,177.4707,76.6528,283.4614,2.8872e-06,-2.42e-06,0.0,0 STARLINK-3840,1 52466U 22049R   24051.62789132 -.00000242  00000-0  28872-5 0  9991,2 52466  53.2172 177.4707 0001339  76.6528 283.4614 15.08838267 99316,6917.886,95.438,540.677,538.824,0.0
52466.0,STARLINK-3840,PAYLOAD,2024-02-21 11:44:10,15.08831363,0.0001303,53.2174,173.604,75.7169,284.3968,4.234e-05,3.86e-06,0.0,0 STARLINK-3840,1 52466U 22049R   24052.48901610  .00000386  00000-0  42340-4 0  9996,2 52466  53.2174 173.6040 0001303  75.7169 284.3968 15.08831363 99602,6917.907,95.438,540.673,538.87,0.0
52466.0,STARLINK-3840,PAYLOAD,2024-02-21 14:54:57,15.08830801,0.000131,53.2178,173.0075,81.5666,278.5475,3.0814e-05,2.02e-06,0.0,0 STARLINK-3840,1 52466U 22049R   24052.62149704  .00000202  00000-0  30814-4 0  9990,2 52466  53.2178 173.0075 0001310  81.5666 278.5475 15.08830801 99461,6917.909,95.438,540.68,538.867,0.0
52466.0,STARLINK-3840,PAYLOAD,2024-02-22 14:45:44,15.08833446,0.0001263,53.2173,168.5491,91.9176,268.1961,-1.0977e-05,-4.63e-06,0.0,0 STARLINK-3840,1 52466U 22049R   24053.61509886 -.00000463  00000-0 -10977-4 0  9990,2 52466  53.2173 168.5491 0001263  91.9176 268.1961 15.08833446 99615,6917.9,95.438,540.639,538.892,0.0
52466.0,STARLINK-3840,PAYLOAD,2024-02-23 14:36:31,15.08835784,0.0001207,53.2169,164.0882,88.8632,271.2498,2.158e-05,5.6e-07,0.0,0 STARLINK-3840,1 52466U 22049R   24054.60869910  .00000056  00000-0  21580-4 0  9995,2 52466  53.2169 164.0882 0001207  88.8632 271.2498 15.08835784 99768,6917.893,95.438,540.593,538.923,0.0
52466.0,STARLINK-3840,PAYLOAD,2024-02-23 16:11:54,15.08838026,0.0001267,53.2173,163.7918,93.4482,266.6655,4.1524e-05,3.73e-06,0.0,0 STARLINK-3840,1 52466U 22049R   24054.67493716  .00000373  00000-0  41524-4 0  9991,2 52466  53.2173 163.7918 0001267  93.4482 266.6655 15.08838026 99934,6917.886,95.438,540.628,538.875,0.0
52466.0,STARLINK-3840,PAYLOAD,2024-02-24 11:16:32,15.08828667,0.000141,53.218,160.2249,85.4347,274.6806,5.7589e-06,-1.96e-06,0.0,0 STARLINK-3840,1 52466U 22049R   24055.46982593 -.00000196  00000-0  57589-5 0  9998,2 52466  53.2180 160.2249 0001410  85.4347 274.6806 15.08828667100055,6917.915,95.438,540.755,538.805,0.0
52466.0,STARLINK-3840,PAYLOAD,2024-02-24 14:27:18,15.08832847,0.000162,53.2185,159.6287,84.468,275.6497,4.7642e-05,4.7e-06,0.0,0 STARLINK-3840,1 52466U 22049R   24055.60230224  .00000470  00000-0  47642-4 0  9993,2 52466  53.2185 159.6287 0001620  84.4680 275.6497 15.08832847 99910,6917.902,95.438,540.888,538.647,0.0
52466.0,STARLINK-3840,PAYLOAD,2024-02-25 12:42:42,15.08842633,0.0001521,53.2174,155.4659,78.7716,281.3447,7.3759e-05,8.86e-06,0.0,0 STARLINK-3840,1 52466U 22049R   24056.52965532  .00000886  00000-0  73759-4 0  9991,2 52466  53.2174 155.4659 0001521  78.7716 281.3447 15.08842633100210,6917.872,95.437,540.79,538.685,0.0
52466.0,STARLINK-3840,PAYLOAD,2024-02-25 14:18:05,15.08844369,0.0001334,53.2173,155.1663,93.1999,266.9146,5.5583e-05,5.97e-06,0.0,0 STARLINK-3840,1 52466U 22049R   24056.59589381  .00000597  00000-0  55583-4 0  9996,2 52466  53.2173 155.1663 0001334  93.1999 266.9146 15.08844369100063,6917.867,95.437,540.655,538.809,0.0
52466.0,STARLINK-3840,PAYLOAD,2024-02-25 15:53:28,15.08842558,0.0001364,53.2174,154.8692,91.2551,268.8597,4.5042e-05,4.29e-06,0.0,0 STARLINK-3840,1 52466U 22049R   24056.66213543  .00000429  00000-0  45042-4 0  9991,2 52466  53.2174 154.8692 0001364  91.2551 268.8597 15.08842558100078,6917.873,95.437,540.681,538.794,0.0
52466.0,STARLINK-3840,PAYLOAD,2024-02-26 10:58:06,15.08835028,0.0001719,53.2188,151.303,81.3927,278.726,1.4116e-05,-6.3e-07,0.0,0 STARLINK-3840,1 52466U 22049R   24057.45702365 -.00000063  00000-0  14116-4 0  9997,2 52466  53.2188 151.3030 0001719  81.3927 278.7260 15.08835028100354,6917.896,95.438,540.95,538.571,0.0
52466.0,STARLINK-3840,PAYLOAD,2024-02-26 12:33:30,15.08832101,0.0001833,53.217,151.0092,64.7515,295.3667,6.3975e-05,7.3e-06,0.0,0 STARLINK-3840,1 52466U 22049R   24057.52326434  .00000730  00000-0  63975-4 0  9991,2 52466  53.2170 151.0092 0001833  64.7515 295.3667 15.08832101100204,6917.905,95.438,541.038,538.501,0.0
52466.0,STARLINK-3840,PAYLOAD,2024-02-26 15:44:15,15.08846365,0.0001476,53.2175,150.4094,92.3601,267.756,5.3521e-05,5.64e-06,0.0,0 STARLINK-3840,1 52466U 22049R   24057.65573339  .00000564  00000-0  53521-4 0  9994,2 52466  53.2175 150.4094 0001476  92.3601 267.7560 15.08846365100381,6917.861,95.437,540.747,538.705,0.0
52466.0,STARLINK-3840,PAYLOAD,2024-02-27 12:24:16,15.08841028,0.0001497,53.2175,146.5462,85.6905,274.4258,-2.1954e-05,-6.37e-06,0.0,0 STARLINK-3840,1 52466U 22049R   24058.51685988 -.00000637  00000-0 -21954-4 0  9992,2 52466  53.2175 146.5462 0001497  85.6905 274.4258 15.08841028100516,6917.877,95.437,540.778,538.707,0.0
52466.0,STARLINK-3840,PAYLOAD,2024-02-28 12:15:04,15.08826131,0.0001272,53.2178,142.0831,89.1197,270.994,6.2432e-05,7.06e-06,0.0,0 STARLINK-3840,1 52466U 22049R   24059.51046653  .00000706  00000-0  62432-4 0  9994,2 52466  53.2178 142.0831 0001272  89.1197 270.9940 15.08826131100666,6917.923,95.438,540.668,538.908,0.0
52466.0,STARLINK-3840,PAYLOAD,2024-02-29 12:05:50,15.08843386,0.0001399,53.2172,137.623,84.3759,275.7393,2.9944e-05,1.89e-06,0.0,0 STARLINK-3840,1 52466U 22049R   24060.50405932  .00000189  00000-0  29944-4 0  9990,2 52466  53.2172 137.6230 0001399  84.3759 275.7393 15.08843386100817,6917.87,95.437,540.703,538.767,0.0
52466.0,STARLINK-3840,PAYLOAD,2024-02-29 21:38:10,15.08837182,0.0001373,53.217,135.8405,84.5258,275.589,-2.2536e-05,-6.47e-06,0.0,0 STARLINK-3840,1 52466U 22049R   24060.90150466 -.00000647  00000-0 -22536-4 0  9994,2 52466  53.2170 135.8405 0001373  84.5258 275.5890 15.08837182100713,6917.889,95.438,540.704,538.804,0.0
52466.0,STARLINK-3840,PAYLOAD,2024-03-01 11:56:38,15.08832526,0.000136,53.2166,133.1643,88.7684,271.3464,5.4404e-05,5.78e-06,0.0,0 STARLINK-3840,1 52466U 22049R   24061.49766672  .00000578  00000-0  54404-4 0  9991,2 52466  53.2166 133.1643 0001360  88.7684 271.3464 15.08832526100806,6917.903,95.438,540.709,538.827,0.0
52466.0,STARLINK-3840,PAYLOAD,2024-03-01 15:07:24,15.08836769,0.0001397,53.217,132.5686,87.1392,272.976,7.8772e-05,9.66e-06,0.0,0 STARLINK-3840,1 52466U 22049R   24061.63014353  .00000966  00000-0  78772-4 0  9994,2 52466  53.2170 132.5686 0001397  87.1392 272.9760 15.08836769100821,6917.89,95.438,540.722,538.789,0.0
52466.0,STARLINK-3840,PAYLOAD,2024-03-02 11:47:25,15.08838532,0.0001323,53.2165,128.7022,80.2691,279.845,-5.0761e-06,-3.69e-06,0.0,0 STARLINK-3840,1 52466U 22049R   24062.49126744 -.00000369  00000-0 -50761-5 0  9995,2 52466  53.2165 128.7022 0001323  80.2691 279.8450 15.08838532101116,6917.885,95.438,540.665,538.835,0.0
